2025-313BC              
1 67298U 25313BC  26068.18968176  .00075331  00000+0  26410-2 0  9997
2 67298  97.3985 144.8110 0008478 328.9209  31.1528 15.29126358  7890
STARLINK-36462          
1 67321U 26002S   26067.10493762  .00041128  00000+0  14935-2 0  9991
2 67321  42.9979 334.4660 0001265 246.6854 113.3865 15.27630310 10833
